{"type": "FeatureCollection", "features": [ {"type": "Feature", "properties": {"norad_id": 66526, "name": "STARLINK-35932", "group": "last-30-days", "lat": 34.843147601651474, "lon": 113.71588662070654, "alt_km": 410.30087423817895, "timestamp": "2025-12-10T18:56:58.832798+00:00", "meta": {"OBJECT_NAME": "STARLINK-35932", "OBJECT_ID": "2025-265L", "EPOCH": "2025-12-10T12:00:02.998944", "MEAN_MOTION": 15.50709195, "ECCENTRICITY": 0.0001342, "INCLINATION": 42.9998, "RA_OF_ASC_NODE": 67.0742, "ARG_OF_PERICENTER": 274.3413, "MEAN_ANOMALY": 324.4312, "EPHEMERIS_TYPE": 0, "CLASSIFICATION_TYPE": "U", "NORAD_CAT_ID": 66526, "ELEMENT_SET_NO": 999, "REV_AT_EPOCH": 452, "BSTAR": -0.0048468, "MEAN_MOTION_DOT": -0.0027616, "MEAN_MOTION_DDOT": 0}, "tle": {"line1": "1 66526U 25265L   25344.50003471 -.00276160  00000+0 -48468-2 0  9998", "line2": "2 66526  42.9998  67.0742 0001342 274.3413 324.4312 15.50709195  4520"}}, "geometry": {"type": "Point", "coordinates": [113.71588662070654, 34.843147601651474]}}, {"type": "Feature", "properties": {"norad_id": 66527, "name": "STARLINK-35935", "group": "last-30-days", "lat": 35.68675937489759, "lon": 115.79820020100111, "alt_km": 410.15182748566986, "timestamp": "2025-12-10T18:56:58.832808+00:00", "meta": {"OBJECT_NAME": "STARLINK-35935", "OBJECT_ID": "2025-265M", "EPOCH": "2025-12-10T12:00:02.998944", "MEAN_MOTION": 15.5066886, "ECCENTRICITY": 0.0001265, "INCLINATION": 42.9995, "RA_OF_ASC_NODE": 67.0697, "ARG_OF_PERICENTER": 272.7018, "MEAN_ANOMALY": 327.9915, "EPHEMERIS_TYPE": 0, "CLASSIFICATION_TYPE": "U", "NORAD_CAT_ID": 66527, "ELEMENT_SET_NO": 999, "REV_AT_EPOCH": 463, "BSTAR": -0.0036328, "MEAN_MOTION_DOT": -0.00208548, "MEAN_MOTION_DDOT": 0}, "tle": {"line1": "1 66527U 25265M   25344.50003471 -.00208548  00000+0 -36328-2 0  9996", "line2": "2 66527  42.9995  67.0697 0001265 272.7018 327.9915 15.50668860  4636"}}, "geometry": {"type": "Point", "coordinates": [115.79820020100111, 35.68675937489759]}}, {"type": "Feature", "properties": {"norad_id": 66528, "name": "STARLINK-35928", "group": "last-30-days", "lat": 36.497489282940386, "lon": 117.93189003280843, "alt_km": 409.9718797809164, "timestamp": "2025-12-10T18:56:58.832818+00:00", "meta": {"OBJECT_NAME": "STARLINK-35928", "OBJECT_ID": "2025-265N", "EPOCH": "2025-12-10T12:00:02.998944", "MEAN_MOTION": 15.50637497, "ECCENTRICITY": 0.0001304, "INCLINATION": 43, "RA_OF_ASC_NODE": 67.0644, "ARG_OF_PERICENTER": 280.7325, "MEAN_ANOMALY": 321.881, "EPHEMERIS_TYPE": 0, "CLASSIFICATION_TYPE": "U", "NORAD_CAT_ID": 66528, "ELEMENT_SET_NO": 999, "REV_AT_EPOCH": 463, "BSTAR": -0.0026262, "MEAN_MOTION_DOT": -0.00151776, "MEAN_MOTION_DDOT": 0}, "tle": {"line1": "1 66528U 25265N   25344.50003471 -.00151776  00000+0 -26262-2 0  9993", "line2": "2 66528  43.0000  67.0644 0001304 280.7325 321.8810 15.50637497  4631"}}, "geometry": {"type": "Point", "coordinates": [117.93189003280843, 36.497489282940386]}}, {"type": "Feature", "properties": {"norad_id": 66529, "name": "STARLINK-35933", "group": "last-30-days", "lat": 37.270551372590724, "lon": 120.11633117225497, "alt_km": 410.08842257678407, "timestamp": "2025-12-10T18:56:58.832830+00:00", "meta": {"OBJECT_NAME": "STARLINK-35933", "OBJECT_ID": "2025-265P", "EPOCH": "2025-12-10T12:00:02.998944", "MEAN_MOTION": 15.50631758, "ECCENTRICITY": 0.0001486, "INCLINATION": 42.9997, "RA_OF_ASC_NODE": 67.0597, "ARG_OF_PERICENTER": 268.1217, "MEAN_ANOMALY": 336.4086, "EPHEMERIS_TYPE": 0, "CLASSIFICATION_TYPE": "U", "NORAD_CAT_ID": 66529, "ELEMENT_SET_NO": 999, "REV_AT_EPOCH": 463, "BSTAR": -0.0024593, "MEAN_MOTION_DOT": -0.00142296, "MEAN_MOTION_DDOT": 0}, "tle": {"line1": "1 66529U 25265P   25344.50003471 -.00142296  00000+0 -24593-2 0  9996", "line2": "2 66529  42.9997  67.0597 0001486 268.1217 336.4086 15.50631758  4634"}}, "geometry": {"type": "Point", "coordinates": [120.11633117225497, 37.270551372590724]}}, {"type": "Feature", "properties": {"norad_id": 66530, "name": "STARLINK-35961", "group": "last-30-days", "lat": 38.00807771019497, "lon": 122.36079528876142, "alt_km": 409.89165495977795, "timestamp": "2025-12-10T18:56:58.832844+00:00", "meta": {"OBJECT_NAME": "STARLINK-35961", "OBJECT_ID": "2025-265Q", "EPOCH": "2025-12-10T12:00:02.998944", "MEAN_MOTION": 15.50640333, "ECCENTRICITY": 0.000142, "INCLINATION": 42.9998, "RA_OF_ASC_NODE": 67.0543, "ARG_OF_PERICENTER": 274.3345, "MEAN_ANOMALY": 332.1154, "EPHEMERIS_TYPE": 0, "CLASSIFICATION_TYPE": "U", "NORAD_CAT_ID": 66530, "ELEMENT_SET_NO": 999, "REV_AT_EPOCH": 463, "BSTAR": -0.0026625, "MEAN_MOTION_DOT": -0.00153845, "MEAN_MOTION_DDOT": 0}, "tle": {"line1": "1 66530U 25265Q   25344.50003471 -.00153845  00000+0 -26625-2 0  9998", "line2": "2 66530  42.9998  67.0543 0001420 274.3345 332.1154 15.50640333  4635"}}, "geometry": {"type": "Point", "coordinates": [122.36079528876142, 38.00807771019497]}}, {"type": "Feature", "properties": {"norad_id": 66531, "name": "STARLINK-35960", "group": "last-30-days", "lat": 38.71049877408824, "lon": 124.68117391680067, "alt_km": 409.71954772768913, "timestamp": "2025-12-10T18:56:58.832855+00:00", "meta": {"OBJECT_NAME": "STARLINK-35960", "OBJECT_ID": "2025-265R", "EPOCH": "2025-12-10T12:00:02.998944", "MEAN_MOTION": 15.50728487, "ECCENTRICITY": 0.0001173, "INCLINATION": 42.9998, "RA_OF_ASC_NODE": 67.0505, "ARG_OF_PERICENTER": 268.0862, "MEAN_ANOMALY": 340.2743, "EPHEMERIS_TYPE": 0, "CLASSIFICATION_TYPE": "U", "NORAD_CAT_ID": 66531, "ELEMENT_SET_NO": 999, "REV_AT_EPOCH": 463, "BSTAR": -0.0054253, "MEAN_MOTION_DOT": -0.0030805, "MEAN_MOTION_DDOT": 0}, "tle": {"line1": "1 66531U 25265R   25344.50003471 -.00308050  00000+0 -54253-2 0  9997", "line2": "2 66531  42.9998  67.0505 0001173 268.0862 340.2743 15.50728487  4634"}}, "geometry": {"type": "Point", "coordinates": [124.68117391680067, 38.71049877408824]}}, {"type": "Feature", "properties": {"norad_id": 66532, "name": "STARLINK-35914", "group": "last-30-days", "lat": 39.34961377901304, "lon": 126.98373229337321, "alt_km": 409.6818569459592, "timestamp": "2025-12-10T18:56:58.832866+00:00", "meta": {"OBJECT_NAME": "STARLINK-35914", "OBJECT_ID": "2025-265S", "EPOCH": "2025-12-10T12:00:02.998944", "MEAN_MOTION": 15.50698548, "ECCENTRICITY": 0.0001334, "INCLINATION": 42.9995, "RA_OF_ASC_NODE": 67.0451, "ARG_OF_PERICENTER": 274.9048, "MEAN_ANOMALY": 335.3703, "EPHEMERIS_TYPE": 0, "CLASSIFICATION_TYPE": "U", "NORAD_CAT_ID": 66532, "ELEMENT_SET_NO": 999, "REV_AT_EPOCH": 463, "BSTAR": -0.0045517, "MEAN_MOTION_DOT": -0.00259803, "MEAN_MOTION_DDOT": 0}, "tle": {"line1": "1 66532U 25265S   25344.50003471 -.00259803  00000+0 -45517-2 0  9992", "line2": "2 66532  42.9995  67.0451 0001334 274.9048 335.3703 15.50698548  4638"}}, "geometry": {"type": "Point", "coordinates": [126.98373229337321, 39.34961377901304]}}, {"type": "Feature", "properties": {"norad_id": 66533, "name": "STARLINK-35707", "group": "last-30-days", "lat": 39.94104930274709, "lon": 129.32104718330555, "alt_km": 409.657989663493, "timestamp": "2025-12-10T18:56:58.832877+00:00", "meta": {"OBJECT_NAME": "STARLINK-35707", "OBJECT_ID": "2025-265T", "EPOCH": "2025-12-10T12:00:02.998944", "MEAN_MOTION": 15.50631822, "ECCENTRICITY": 0.0001418, "INCLINATION": 42.9996, "RA_OF_ASC_NODE": 67.0403, "ARG_OF_PERICENTER": 270.9164, "MEAN_ANOMALY": 341.2871, "EPHEMERIS_TYPE": 0, "CLASSIFICATION_TYPE": "U", "NORAD_CAT_ID": 66533, "ELEMENT_SET_NO": 999, "REV_AT_EPOCH": 463, "BSTAR": -0.0024159, "MEAN_MOTION_DOT": -0.00139832, "MEAN_MOTION_DDOT": 0}, "tle": {"line1": "1 66533U 25265T   25344.50003471 -.00139832  00000+0 -24159-2 0  9991", "line2": "2 66533  42.9996  67.0403 0001418 270.9164 341.2871 15.50631822  4639"}}, "geometry": {"type": "Point", "coordinates": [129.32104718330555, 39.94104930274709]}}, {"type": "Feature", "properties": {"norad_id": 66534, "name": "STARLINK-35976", "group": "last-30-days", "lat": 40.49104828805899, "lon": 131.72763553937193, "alt_km": 409.59978840487474, "timestamp": "2025-12-10T18:56:58.832887+00:00", "meta": {"OBJECT_NAME": "STARLINK-35976", "OBJECT_ID": "2025-265U", "EPOCH": "2025-12-10T12:00:02.998944", "MEAN_MOTION": 15.50642405, "ECCENTRICITY": 0.0001434, "INCLINATION": 42.9997, "RA_OF_ASC_NODE": 67.0357, "ARG_OF_PERICENTER": 270.867, "MEAN_ANOMALY": 343.251, "EPHEMERIS_TYPE": 0, "CLASSIFICATION_TYPE": "U", "NORAD_CAT_ID": 66534, "ELEMENT_SET_NO": 999, "REV_AT_EPOCH": 463, "BSTAR": -0.0027619, "MEAN_MOTION_DOT": -0.00159472, "MEAN_MOTION_DDOT": 0}, "tle": {"line1": "1 66534U 25265U   25344.50003471 -.00159472  00000+0 -27619-2 0  9998", "line2": "2 66534  42.9997  67.0357 0001434 270.8670 343.2510 15.50642405  4639"}}, "geometry": {"type": "Point", "coordinates": [131.72763553937193, 40.49104828805899]}}, {"type": "Feature", "properties": {"norad_id": 66535, "name": "STARLINK-35514", "group": "last-30-days", "lat": 40.98817874036688, "lon": 134.16241512086128, "alt_km": 409.48499456548507, "timestamp": "2025-12-10T18:56:58.832896+00:00", "meta": {"OBJECT_NAME": "STARLINK-35514", "OBJECT_ID": "2025-265V", "EPOCH": "2025-12-10T12:00:02.998944", "MEAN_MOTION": 15.5063046, "ECCENTRICITY": 0.0001381, "INCLINATION": 42.9997, "RA_OF_ASC_NODE": 67.031, "ARG_OF_PERICENTER": 271.3142, "MEAN_ANOMALY": 344.7202, "EPHEMERIS_TYPE": 0, "CLASSIFICATION_TYPE": "U", "NORAD_CAT_ID": 66535, "ELEMENT_SET_NO": 999, "REV_AT_EPOCH": 463, "BSTAR": -0.002305, "MEAN_MOTION_DOT": -0.00133529, "MEAN_MOTION_DDOT": 0}, "tle": {"line1": "1 66535U 25265V   25344.50003471 -.00133529  00000+0 -23050-2 0  9999", "line2": "2 66535  42.9997  67.0310 0001381 271.3142 344.7202 15.50630460  4632"}}, "geometry": {"type": "Point", "coordinates": [134.16241512086128, 40.98817874036688]}}]}